[
  {
    "name": "ONEWEB-0400",
    "noradId": "50480",
    "line1": "1 50480U 21132M   26197.90408640 -.00000029  00000+0 -10609-3 0  9993",
    "line2": "2 50480  87.9200 329.5362 0002045  96.4544 263.6821 13.18684497225523"
  },
  {
    "name": "ONEWEB-0401",
    "noradId": "50481",
    "line1": "1 50481U 21132N   26197.87374256 -.00000014  00000+0 -67555-4 0  9992",
    "line2": "2 50481  87.9201 329.5399 0001789 105.4500 254.6829 13.18686281225523"
  },
  {
    "name": "ONEWEB-0402",
    "noradId": "50482",
    "line1": "1 50482U 21132P   26197.91251172  .00000012  00000+0 -34194-5 0  9990",
    "line2": "2 50482  87.9199 329.5206 0001621 113.0699 247.0605 13.18687406225557"
  },
  {
    "name": "ONEWEB-0403",
    "noradId": "50483",
    "line1": "1 50483U 21132Q   26197.86193863  .00000156  00000+0  36340-3 0  9998",
    "line2": "2 50483  87.9198 329.5553 0001814  93.8879 266.2460 13.18686789225501"
  },
  {
    "name": "ONEWEB-0404",
    "noradId": "50484",
    "line1": "1 50484U 21132R   26197.93465669  .00000391  00000+0  10663-2 0  9993",
    "line2": "2 50484  87.8888  15.1435 0001808  80.9006 279.2327 13.11417493219591"
  },
  {
    "name": "ONEWEB-0405",
    "noradId": "50485",
    "line1": "1 50485U 21132S   26197.87542641  .00000018  00000+0  12935-4 0  9995",
    "line2": "2 50485  87.9201 329.5380 0002371  96.2457 263.8945 13.18684834225908"
  },
  {
    "name": "ONEWEB-0406",
    "noradId": "50486",
    "line1": "1 50486U 21132T   26197.86699149  .00000060  00000+0  11995-3 0  9992",
    "line2": "2 50486  87.9194 329.5541 0001712  82.0312 278.1014 13.18686496225531"
  },
  {
    "name": "ONEWEB-0407",
    "noradId": "50487",
    "line1": "1 50487U 21132U   26197.86023563 -.00000204  00000+0 -54963-3 0  9998",
    "line2": "2 50487  87.9199 329.5490 0001987 103.9753 256.1600 13.18686104225472"
  },
  {
    "name": "ONEWEB-0409",
    "noradId": "50488",
    "line1": "1 50488U 21132V   26197.55148089  .00000336  00000+0  91231-3 0  9999",
    "line2": "2 50488  87.8891  15.2093 0001910  82.4001 277.7344 13.11418049219439"
  },
  {
    "name": "ONEWEB-0412",
    "noradId": "50489",
    "line1": "1 50489U 21132W   26197.84844594  .00000026  00000+0  33622-4 0  9993",
    "line2": "2 50489  87.9196 329.5588 0001681 106.0136 254.1181 13.18686892225565"
  },
  {
    "name": "ONEWEB-0413",
    "noradId": "50490",
    "line1": "1 50490U 21132X   26197.85349993  .00000020  00000+0  16886-4 0  9996",
    "line2": "2 50490  87.9188 329.5540 0001847 107.7583 252.3751 13.18687846225501"
  },
  {
    "name": "ONEWEB-0414",
    "noradId": "50491",
    "line1": "1 50491U 21132Y   26197.91420436 -.00000022  00000+0 -87778-4 0  9998",
    "line2": "2 50491  87.9199 329.5269 0001699  97.7568 262.3757 13.18686873225548"
  },
  {
    "name": "ONEWEB-0417",
    "noradId": "50492",
    "line1": "1 50492U 21132Z   26197.84675521  .00000015  00000+0  48072-5 0  9993",
    "line2": "2 50492  87.9193 329.5573 0001858  92.9774 267.1571 13.18687045225510"
  },
  {
    "name": "ONEWEB-0418",
    "noradId": "50493",
    "line1": "1 50493U 21132AA  26197.85673714  .00000032  00000+0  47676-4 0  9994",
    "line2": "2 50493  87.9194 329.5567 0001875  90.3803 269.7544 13.18686056225574"
  },
  {
    "name": "ONEWEB-0419",
    "noradId": "50494",
    "line1": "1 50494U 21132AB  26197.87578811  .00000028  00000+0  39383-4 0  9990",
    "line2": "2 50494  87.9198 329.5539 0002091  92.7564 267.3807 13.18665713225493"
  },
  {
    "name": "ONEWEB-0420",
    "noradId": "50495",
    "line1": "1 50495U 21132AC  26197.38474389  .00000050  00000+0  93520-4 0  9990",
    "line2": "2 50495  87.9190 329.6513 0002018 103.4927 256.6430 13.18684621225426"
  },
  {
    "name": "ONEWEB-0421",
    "noradId": "50496",
    "line1": "1 50496U 21132AD  26197.90915846  .00000011  00000+0 -44039-5 0  9997",
    "line2": "2 50496  87.9193 329.5454 0001537 102.7530 257.3774 13.18686468225532"
  },
  {
    "name": "ONEWEB-0424",
    "noradId": "50497",
    "line1": "1 50497U 21132AE  26197.87036858  .00000066  00000+0  13536-3 0  9996",
    "line2": "2 50497  87.9198 329.5533 0002212  92.8998 267.2387 13.18686470225559"
  },
  {
    "name": "ONEWEB-0426",
    "noradId": "50498",
    "line1": "1 50498U 21132AF  26197.90493660 -.00000044  00000+0 -14479-3 0  9994",
    "line2": "2 50498  87.9200 329.5369 0001326  83.9003 276.2280 13.18686449225507"
  },
  {
    "name": "ONEWEB-0427",
    "noradId": "50499",
    "line1": "1 50499U 21132AG  26197.86868351  .00000048  00000+0  90279-4 0  9998",
    "line2": "2 50499  87.9200 329.5335 0001813  91.6684 268.4656 13.18686702225527"
  },
  {
    "name": "ONEWEB-0429",
    "noradId": "50500",
    "line1": "1 50500U 21132AH  26197.85518006  .00000019  00000+0  14665-4 0  9992",
    "line2": "2 50500  87.9191 329.5584 0001937 102.1055 258.0294 13.18687374225497"
  },
  {
    "name": "ONEWEB-0430",
    "noradId": "50501",
    "line1": "1 50501U 21132AJ  26197.84337374  .00000014  00000+0  37712-5 0  9993",
    "line2": "2 50501  87.9192 329.5591 0002111 103.3090 256.8278 13.18688632225535"
  },
  {
    "name": "ONEWEB-0432",
    "noradId": "50502",
    "line1": "1 50502U 21132AK  26197.90227144 -.00000010  00000+0 -58187-4 0  9990",
    "line2": "2 50502  87.9198 329.5343 0002338  97.4537 262.6861 13.18686459225490"
  },
  {
    "name": "ONEWEB-0440",
    "noradId": "50503",
    "line1": "1 50503U 21132AL  26197.86361612  .00000043  00000+0  76471-4 0  9995",
    "line2": "2 50503  87.9199 329.5535 0001745 107.3686 252.7637 13.18686791225481"
  },
  {
    "name": "ONEWEB-0450",
    "noradId": "50504",
    "line1": "1 50504U 21132AM  26197.85701301  .00000063  00000+0  12703-3 0  9997",
    "line2": "2 50504  87.9189 329.5569 0002023 103.2713 256.8644 13.18686655225510"
  },
  {
    "name": "ONEWEB-0410",
    "noradId": "51622",
    "line1": "1 51622U 22012A   26197.52863154 -.00000010  00000+0 -58016-4 0  9998",
    "line2": "2 51622  87.9159   0.0224 0001653  49.8083 310.3194 13.17650022217561"
  },
  {
    "name": "ONEWEB-0411",
    "noradId": "51623",
    "line1": "1 51623U 22012B   26197.48732352 -.00000613  00000+0 -17925-2 0  9990",
    "line2": "2 51623  87.8823  30.4292 0002324  95.5296 264.6096 13.10375331213121"
  },
  {
    "name": "ONEWEB-0415",
    "noradId": "51624",
    "line1": "1 51624U 22012C   26197.56028231 -.00000834  00000+0 -24269-2 0  9998",
    "line2": "2 51624  87.8818  30.4123 0002133  87.2822 272.8550 13.10372881213134"
  },
  {
    "name": "ONEWEB-0416",
    "noradId": "51625",
    "line1": "1 51625U 22012D   26197.95395536 -.00000578  00000+0 -16926-2 0  9993",
    "line2": "2 51625  87.8816  30.3508 0002174  83.8880 276.2495 13.10376288213221"
  },
  {
    "name": "ONEWEB-0422",
    "noradId": "51626",
    "line1": "1 51626U 22012E   26197.46281933 -.00000156  00000+0 -43459-3 0  9999",
    "line2": "2 51626  87.9156   0.0361 0001945 113.6251 246.5085 13.17649684217667"
  },
  {
    "name": "ONEWEB-0423",
    "noradId": "51627",
    "line1": "1 51627U 22012F   26197.45607564  .00000034  00000+0  55339-4 0  9995",
    "line2": "2 51627  87.9148   0.0409 0001750  89.2283 270.9049 13.17648844217555"
  }
]