OBJECT_NAME,OBJECT_ID,EPOCH,MEAN_MOTION,ECCENTRICITY,INCLINATION,RA_OF_ASC_NODE,ARG_OF_PERICENTER,MEAN_ANOMALY,EPHEMERIS_TYPE,CLASSIFICATION_TYPE,NORAD_CAT_ID,ELEMENT_SET_NO,REV_AT_EPOCH,BSTAR,MEAN_MOTION_DOT,MEAN_MOTION_DDOT
ONEWEB-0400,2021-132M,2026-07-16T21:41:53.064960,13.18684497,.0002045,87.9200,329.5362,96.4544,263.6821,0,U,50480,999,22552,-.10609E-3,-.29E-6,0
ONEWEB-0401,2021-132N,2026-07-16T20:58:11.357184,13.18686281,.0001789,87.9201,329.5399,105.4500,254.6829,0,U,50481,999,22552,-.67555E-4,-.14E-6,0
ONEWEB-0402,2021-132P,2026-07-16T21:54:01.012608,13.18687406,.0001621,87.9199,329.5206,113.0699,247.0605,0,U,50482,999,22555,-.34194E-5,.12E-6,0
ONEWEB-0403,2021-132Q,2026-07-16T20:41:11.497632,13.18686789,.0001814,87.9198,329.5553,93.8879,266.2460,0,U,50483,999,22550,.3634E-3,.156E-5,0
ONEWEB-0404,2021-132R,2026-07-16T22:25:54.338016,13.11417493,.0001808,87.8888,15.1435,80.9006,279.2327,0,U,50484,999,21959,.10663E-2,.391E-5,0
ONEWEB-0405,2021-132S,2026-07-16T21:00:36.841824,13.18684834,.0002371,87.9201,329.5380,96.2457,263.8945,0,U,50485,999,22590,.12935E-4,.18E-6,0
ONEWEB-0406,2021-132T,2026-07-16T20:48:28.064736,13.18686496,.0001712,87.9194,329.5541,82.0312,278.1014,0,U,50486,999,22553,.11995E-3,.6E-6,0
ONEWEB-0407,2021-132U,2026-07-16T20:38:44.358432,13.18686104,.0001987,87.9199,329.5490,103.9753,256.1600,0,U,50487,999,22547,-.54963E-3,-.204E-5,0
ONEWEB-0409,2021-132V,2026-07-16T13:14:07.948896,13.11418049,.000191,87.8891,15.2093,82.4001,277.7344,0,U,50488,999,21943,.91231E-3,.336E-5,0
ONEWEB-0412,2021-132W,2026-07-16T20:21:45.729216,13.18686892,.0001681,87.9196,329.5588,106.0136,254.1181,0,U,50489,999,22556,.33622E-4,.26E-6,0
ONEWEB-0413,2021-132X,2026-07-16T20:29:02.393952,13.18687846,.0001847,87.9188,329.5540,107.7583,252.3751,0,U,50490,999,22550,.16886E-4,.2E-6,0
ONEWEB-0414,2021-132Y,2026-07-16T21:56:27.256704,13.18686873,.0001699,87.9199,329.5269,97.7568,262.3757,0,U,50491,999,22554,-.87778E-4,-.22E-6,0
ONEWEB-0417,2021-132Z,2026-07-16T20:19:19.650144,13.18687045,.0001858,87.9193,329.5573,92.9774,267.1571,0,U,50492,999,22551,.48072E-5,.15E-6,0
ONEWEB-0418,2021-132AA,2026-07-16T20:33:42.088896,13.18686056,.0001875,87.9194,329.5567,90.3803,269.7544,0,U,50493,999,22557,.47676E-4,.32E-6,0
ONEWEB-0419,2021-132AB,2026-07-16T21:01:08.092704,13.18665713,.0002091,87.9198,329.5539,92.7564,267.3807,0,U,50494,999,22549,.39383E-4,.28E-6,0
ONEWEB-0420,2021-132AC,2026-07-16T09:14:01.872096,13.18684621,.0002018,87.9190,329.6513,103.4927,256.6430,0,U,50495,999,22542,.9352E-4,.5E-6,0
ONEWEB-0421,2021-132AD,2026-07-16T21:49:11.290944,13.18686468,.0001537,87.9193,329.5454,102.7530,257.3774,0,U,50496,999,22553,-.44039E-5,.11E-6,0
ONEWEB-0424,2021-132AE,2026-07-16T20:53:19.845312,13.18686470,.0002212,87.9198,329.5533,92.8998,267.2387,0,U,50497,999,22555,.13536E-3,.66E-6,0
ONEWEB-0426,2021-132AF,2026-07-16T21:43:06.522240,13.18686449,.0001326,87.9200,329.5369,83.9003,276.2280,0,U,50498,999,22550,-.14479E-3,-.44E-6,0
ONEWEB-0427,2021-132AG,2026-07-16T20:50:54.255264,13.18686702,.0001813,87.9200,329.5335,91.6684,268.4656,0,U,50499,999,22552,.90279E-4,.48E-6,0
ONEWEB-0429,2021-132AH,2026-07-16T20:31:27.557184,13.18687374,.0001937,87.9191,329.5584,102.1055,258.0294,0,U,50500,999,22549,.14665E-4,.19E-6,0
ONEWEB-0430,2021-132AJ,2026-07-16T20:14:27.491136,13.18688632,.0002111,87.9192,329.5591,103.3090,256.8278,0,U,50501,999,22553,.37712E-5,.14E-6,0
ONEWEB-0432,2021-132AK,2026-07-16T21:39:16.252416,13.18686459,.0002338,87.9198,329.5343,97.4537,262.6861,0,U,50502,999,22549,-.58187E-4,-.1E-6,0
ONEWEB-0440,2021-132AL,2026-07-16T20:43:36.432768,13.18686791,.0001745,87.9199,329.5535,107.3686,252.7637,0,U,50503,999,22548,.76471E-4,.43E-6,0
ONEWEB-0450,2021-132AM,2026-07-16T20:34:05.924064,13.18686655,.0002023,87.9189,329.5569,103.2713,256.8644,0,U,50504,999,22551,.12703E-3,.63E-6,0
ONEWEB-0410,2022-012A,2026-07-16T12:41:13.765056,13.17650022,.0001653,87.9159,0.0224,49.8083,310.3194,0,U,51622,999,21756,-.58016E-4,-.1E-6,0
ONEWEB-0411,2022-012B,2026-07-16T11:41:44.752128,13.10375331,.0002324,87.8823,30.4292,95.5296,264.6096,0,U,51623,999,21312,-.17925E-2,-.613E-5,0
ONEWEB-0415,2022-012C,2026-07-16T13:26:48.391584,13.10372881,.0002133,87.8818,30.4123,87.2822,272.8550,0,U,51624,999,21313,-.24269E-2,-.834E-5,0
ONEWEB-0416,2022-012D,2026-07-16T22:53:41.743104,13.10376288,.0002174,87.8816,30.3508,83.8880,276.2495,0,U,51625,999,21322,-.16926E-2,-.578E-5,0
ONEWEB-0422,2022-012E,2026-07-16T11:06:27.590112,13.17649684,.0001945,87.9156,0.0361,113.6251,246.5085,0,U,51626,999,21766,-.43459E-3,-.156E-5,0
ONEWEB-0423,2022-012F,2026-07-16T10:56:44.935296,13.17648844,.000175,87.9148,0.0409,89.2283,270.9049,0,U,51627,999,21755,.55339E-4,.34E-6,0
